start=new Date('2022-02-23T00:00:00.000Z').valueOf();
sats=[{"NORAD_CAT_ID":"50839","DECAY_DATE":null,"RCS_SIZE":"LARGE","MEAN_ELEMENT_THEORY":"SGP4","MEAN_MOTION_DDOT":"0.0000000000000","CLASSIFICATION_TYPE":"U","OBJECT_TYPE":"PAYLOAD","REF_FRAME":"TEME","PERIAPSIS":"419.421","MEAN_MOTION":"15.48716379","APOAPSIS":"421.543","PERIOD":"92.980","RA_OF_ASC_NODE":"328.1877","EPOCH":"2022-02-22T22:00:00.999936","REV_AT_EPOCH":"868","LAUNCH_DATE":"2022-01-06","ARG_OF_PERICENTER":"45.4522","GP_ID":"196662494","ECCENTRICITY":"0.00015600","FILE":"3314678","TIME_SYSTEM":"UTC","SEMIMAJOR_AXIS":"6798.617","TLE_LINE2":"2 50839  53.2174 328.1877 0001560  45.4522  44.5786 15.48716379  8686","BSTAR":"-0.01306000000000","CENTER_NAME":"EARTH","OBJECT_ID":"2022-001AN","INCLINATION":"53.2174","COUNTRY_CODE":"US","MEAN_ANOMALY":"44.5786","TLE_LINE1":"1 50839U 22001AN  22053.91667824 -.00655053  00000-0 -13060-1 0  9992","OBJECT_NAME":"STARLINK-3320","EPHEMERIS_TYPE":"0","SITE":"AFETR","ELEMENT_SET_NO":"999","MEAN_MOTION_DOT":"-0.00655053"},{"CENTER_NAME":"EARTH","BSTAR":"-0.01271400000000","TLE_LINE2":"2 50840  53.2174 328.1866 0001887  33.2905  64.7320 15.48824242  8696","SEMIMAJOR_AXIS":"6798.301","OBJECT_ID":"2022-001AP","INCLINATION":"53.2174","OBJECT_NAME":"STARLINK-3295","MEAN_ANOMALY":"64.7320","TLE_LINE1":"1 50840U 22001AP  22053.91667824 -.00641318  00000-0 -12714-1 0  9998","COUNTRY_CODE":"US","SITE":"AFETR","ELEMENT_SET_NO":"999","MEAN_MOTION_DOT":"-0.00641318","EPHEMERIS_TYPE":"0","REV_AT_EPOCH":"869","LAUNCH_DATE":"2022-01-06","ARG_OF_PERICENTER":"33.2905","ECCENTRICITY":"0.00018870","GP_ID":"196662579","FILE":"3314678","TIME_SYSTEM":"UTC","REF_FRAME":"TEME","MEAN_MOTION":"15.48824242","PERIAPSIS":"418.884","APOAPSIS":"421.449","EPOCH":"2022-02-22T22:00:00.999936","RA_OF_ASC_NODE":"328.1866","PERIOD":"92.974","NORAD_CAT_ID":"50840","MEAN_ELEMENT_THEORY":"SGP4","RCS_SIZE":"LARGE","DECAY_DATE":null,"CLASSIFICATION_TYPE":"U","MEAN_MOTION_DDOT":"0.0000000000000","OBJECT_TYPE":"PAYLOAD"},{"CLASSIFICATION_TYPE":"U","MEAN_MOTION_DDOT":"0.0000000000000","OBJECT_TYPE":"PAYLOAD","NORAD_CAT_ID":"50841","MEAN_ELEMENT_THEORY":"SGP4","RCS_SIZE":"LARGE","DECAY_DATE":null,"APOAPSIS":"422.444","EPOCH":"2022-02-22T22:00:00.999936","PERIOD":"92.994","RA_OF_ASC_NODE":"328.1886","REF_FRAME":"TEME","MEAN_MOTION":"15.48482647","PERIAPSIS":"419.888","ECCENTRICITY":"0.00018800","GP_ID":"196685533","FILE":"3314780","TIME_SYSTEM":"UTC","LAUNCH_DATE":"2022-01-06","REV_AT_EPOCH":"368","ARG_OF_PERICENTER":"32.6415","OBJECT_NAME":"STARLINK-3300","MEAN_ANOMALY":"41.3083","TLE_LINE1":"1 50841U 22001AQ  22053.91667824 -.00655374  00000-0 -13174-1 0  9997","COUNTRY_CODE":"US","ELEMENT_SET_NO":"999","SITE":"AFETR","MEAN_MOTION_DOT":"-0.00655374","EPHEMERIS_TYPE":"0","CENTER_NAME":"EARTH","BSTAR":"-0.01317400000000","TLE_LINE2":"2 50841  53.2174 328.1886 0001880  32.6415  41.3083 15.48482647  3681","SEMIMAJOR_AXIS":"6799.301","INCLINATION":"53.2174","OBJECT_ID":"2022-001AQ"},{"EPOCH":"2022-02-22T22:00:00.999936","PERIOD":"92.992","RA_OF_ASC_NODE":"328.1859","APOAPSIS":"422.390","MEAN_MOTION":"15.48514601","PERIAPSIS":"419.756","REF_FRAME":"TEME","OBJECT_TYPE":"PAYLOAD","MEAN_MOTION_DDOT":"0.0000000000000","CLASSIFICATION_TYPE":"U","RCS_SIZE":"LARGE","MEAN_ELEMENT_THEORY":"SGP4","DECAY_DATE":null,"NORAD_CAT_ID":"50842","EPHEMERIS_TYPE":"0","ELEMENT_SET_NO":"999","SITE":"AFETR","MEAN_MOTION_DOT":"-0.00025972","TLE_LINE1":"1 50842U 22001AR  22053.91667824 -.00025972  00000-0 -47355-3 0  9993","MEAN_ANOMALY":"63.7408","OBJECT_NAME":"STARLINK-3302","COUNTRY_CODE":"US","OBJECT_ID":"2022-001AR","INCLINATION":"53.2173","BSTAR":"-0.00047355000000","CENTER_NAME":"EARTH","SEMIMAJOR_AXIS":"6799.208","TLE_LINE2":"2 50842  53.2173 328.1859 0001937  42.4518  63.7408 15.48514601  8698","TIME_SYSTEM":"UTC","FILE":"3314687","ECCENTRICITY":"0.00019370","GP_ID":"196662683","ARG_OF_PERICENTER":"42.4518","REV_AT_EPOCH":"869","LAUNCH_DATE":"2022-01-06"},{"PERIOD":"93.008","RA_OF_ASC_NODE":"328.1893","EPOCH":"2022-02-22T22:00:00.999936","APOAPSIS":"423.030","PERIAPSIS":"420.664","MEAN_MOTION":"15.48250003","REF_FRAME":"TEME","OBJECT_TYPE":"PAYLOAD","CLASSIFICATION_TYPE":"U","MEAN_MOTION_DDOT":"0.0000000000000","DECAY_DATE":null,"MEAN_ELEMENT_THEORY":"SGP4","RCS_SIZE":"LARGE","NORAD_CAT_ID":"50843","SITE":"AFETR","ELEMENT_SET_NO":"999","MEAN_MOTION_DOT":"-0.00657066","EPHEMERIS_TYPE":"0","COUNTRY_CODE":"US","OBJECT_NAME":"STARLINK-3325","TLE_LINE1":"1 50843U 22001AS  22053.91667824 -.00657066  00000-0 -13320-1 0  9992","MEAN_ANOMALY":"24.6202","INCLINATION":"53.2174","OBJECT_ID":"2022-001AS","TLE_LINE2":"2 50843  53.2174 328.1893 0001740  32.9950  24.6202 15.48250003  8617","SEMIMAJOR_AXIS":"6799.982","CENTER_NAME":"EARTH","BSTAR":"-0.01332000000000","FILE":"3314687","TIME_SYSTEM":"UTC","GP_ID":"196662616","ECCENTRICITY":"0.00017400","ARG_OF_PERICENTER":"32.9950","LAUNCH_DATE":"2022-01-06","REV_AT_EPOCH":"861"},{"CLASSIFICATION_TYPE":"U","MEAN_MOTION_DDOT":"0.0000000000000","OBJECT_TYPE":"PAYLOAD","NORAD_CAT_ID":"50844","MEAN_ELEMENT_THEORY":"SGP4","RCS_SIZE":"LARGE","DECAY_DATE":null,"APOAPSIS":"421.892","EPOCH":"2022-02-22T22:00:00.999936","PERIOD":"92.991","RA_OF_ASC_NODE":"328.1803","REF_FRAME":"TEME","MEAN_MOTION":"15.48542116","PERIAPSIS":"420.092","ECCENTRICITY":"0.00013240","GP_ID":"196652266","FILE":"3314249","TIME_SYSTEM":"UTC","REV_AT_EPOCH":"869","LAUNCH_DATE":"2022-01-06","ARG_OF_PERICENTER":"40.8702","OBJECT_NAME":"STARLINK-3326","MEAN_ANOMALY":"89.7075","TLE_LINE1":"1 50844U 22001AT  22053.91667824 -.00365878  00000-0 -70717-2 0  9994","COUNTRY_CODE":"US","SITE":"AFETR","MEAN_MOTION_DOT":"-0.00365878","ELEMENT_SET_NO":"999","EPHEMERIS_TYPE":"0","CENTER_NAME":"EARTH","BSTAR":"-0.00707170000000","TLE_LINE2":"2 50844  53.2185 328.1803 0001324  40.8702  89.7075 15.48542116  8699","SEMIMAJOR_AXIS":"6799.127","OBJECT_ID":"2022-001AT","INCLINATION":"53.2185"},{"MEAN_MOTION":"15.49174144","PERIAPSIS":"418.369","REF_FRAME":"TEME","EPOCH":"2022-02-22T22:00:00.999936","RA_OF_ASC_NODE":"328.1792","PERIOD":"92.953","APOAPSIS":"419.917","MEAN_ELEMENT_THEORY":"SGP4","RCS_SIZE":"LARGE","DECAY_DATE":null,"NORAD_CAT_ID":"50845","OBJECT_TYPE":"PAYLOAD","CLASSIFICATION_TYPE":"U","MEAN_MOTION_DDOT":"0.0000000000000","INCLINATION":"53.2160","OBJECT_ID":"2022-001AU","CENTER_NAME":"EARTH","BSTAR":"-0.00104340000000","TLE_LINE2":"2 50845  53.2160 328.1792 0001139  98.2946  72.3621 15.49174144  3683","SEMIMAJOR_AXIS":"6797.278","SITE":"AFETR","MEAN_MOTION_DOT":"-0.00057774","ELEMENT_SET_NO":"999","EPHEMERIS_TYPE":"0","OBJECT_NAME":"STARLINK-3230","TLE_LINE1":"1 50845U 22001AU  22053.91667824 -.00057774  00000-0 -10434-2 0  9998","MEAN_ANOMALY":"72.3621","COUNTRY_CODE":"US","ARG_OF_PERICENTER":"98.2946","LAUNCH_DATE":"2022-01-06","REV_AT_EPOCH":"368","TIME_SYSTEM":"UTC","FILE":"3314780","ECCENTRICITY":"0.00011390","GP_ID":"196686034"},{"NORAD_CAT_ID":"50846","DECAY_DATE":null,"MEAN_ELEMENT_THEORY":"SGP4","RCS_SIZE":"LARGE","CLASSIFICATION_TYPE":"U","MEAN_MOTION_DDOT":"0.0000000000000","OBJECT_TYPE":"PAYLOAD","REF_FRAME":"TEME","PERIAPSIS":"417.818","MEAN_MOTION":"15.49301189","APOAPSIS":"419.725","RA_OF_ASC_NODE":"328.1780","PERIOD":"92.945","EPOCH":"2022-02-22T22:00:00.999936","LAUNCH_DATE":"2022-01-06","REV_AT_EPOCH":"869","ARG_OF_PERICENTER":"44.0410","GP_ID":"196652760","ECCENTRICITY":"0.00014030","FILE":"3314249","TIME_SYSTEM":"UTC","TLE_LINE2":"2 50846  53.2175 328.1780 0001403  44.0410  94.3306 15.49301189  8697","SEMIMAJOR_AXIS":"6796.906","CENTER_NAME":"EARTH","BSTAR":"-0.03114700000000","INCLINATION":"53.2175","OBJECT_ID":"2022-001AV","COUNTRY_CODE":"US","OBJECT_NAME":"STARLINK-3308","TLE_LINE1":"1 50846U 22001AV  22053.91667824 -.01561913  00000-0 -31147-1 0  9998","MEAN_ANOMALY":"94.3306","ELEMENT_SET_NO":"999","SITE":"AFETR","MEAN_MOTION_DOT":"-0.01561913","EPHEMERIS_TYPE":"0"},{"APOAPSIS":"421.924","RA_OF_ASC_NODE":"328.1882","PERIOD":"92.987","EPOCH":"2022-02-22T22:00:00.999936","REF_FRAME":"TEME","PERIAPSIS":"419.724","MEAN_MOTION":"15.48599530","MEAN_MOTION_DDOT":"0.0000000000000","CLASSIFICATION_TYPE":"U","OBJECT_TYPE":"PAYLOAD","NORAD_CAT_ID":"50847","DECAY_DATE":null,"RCS_SIZE":"LARGE","MEAN_ELEMENT_THEORY":"SGP4","COUNTRY_CODE":"US","TLE_LINE1":"1 50847U 22001AW  22053.91667824 -.00655248  00000-0 -13118-1 0  9991","MEAN_ANOMALY":"39.7772","OBJECT_NAME":"STARLINK-3319","EPHEMERIS_TYPE":"0","SITE":"AFETR","MEAN_MOTION_DOT":"-0.00655248","ELEMENT_SET_NO":"999","SEMIMAJOR_AXIS":"6798.959","TLE_LINE2":"2 50847  53.2174 328.1882 0001618  42.2307  39.7772 15.48599530  3685","BSTAR":"-0.01311800000000","CENTER_NAME":"EARTH","OBJECT_ID":"2022-001AW","INCLINATION":"53.2174","GP_ID":"196686535","ECCENTRICITY":"0.00016180","TIME_SYSTEM":"UTC","FILE":"3314780","REV_AT_EPOCH":"368","LAUNCH_DATE":"2022-01-06","ARG_OF_PERICENTER":"42.2307"},{"SEMIMAJOR_AXIS":"6795.559","TLE_LINE2":"2 50848  53.2162 328.1755 0001733  47.9806  98.2334 15.49761986  8727","BSTAR":"-0.03721700000000","CENTER_NAME":"EARTH","OBJECT_ID":"2022-001AX","INCLINATION":"53.2162","COUNTRY_CODE":"US","MEAN_ANOMALY":"98.2334","TLE_LINE1":"1 50848U 22001AX  22053.91667824 -.01891363  00000-0 -37217-1 0  9999","OBJECT_NAME":"STARLINK-3315","EPHEMERIS_TYPE":"0","MEAN_MOTION_DOT":"-0.01891363","SITE":"AFETR","ELEMENT_SET_NO":"999","REV_AT_EPOCH":"872","LAUNCH_DATE":"2022-01-06","ARG_OF_PERICENTER":"47.9806","GP_ID":"196652766","ECCENTRICITY":"0.00017330","TIME_SYSTEM":"UTC","FILE":"3314249","REF_FRAME":"TEME","PERIAPSIS":"416.246","MEAN_MOTION":"15.49761986","APOAPSIS":"418.601","RA_OF_ASC_NODE":"328.1755","PERIOD":"92.917","EPOCH":"2022-02-22T22:00:00.999936","NORAD_CAT_ID":"50848","DECAY_DATE":null,"RCS_SIZE":"LARGE","MEAN_ELEMENT_THEORY":"SGP4","MEAN_MOTION_DDOT":"0.0000000000000","CLASSIFICATION_TYPE":"U","OBJECT_TYPE":"PAYLOAD"}];
